{
  "links" : {
    "next" : "https://api.nasa.gov/neo/rest/v1/feed?start_date=2009-08-23&end_date=2009-08-23&detailed=true&api_key=t0TVs3DtDT2H8Oy2Zy8m2eVrNsAVKAexjcZXUckd",
    "prev" : "https://api.nasa.gov/neo/rest/v1/feed?start_date=2009-08-21&end_date=2009-08-21&detailed=true&api_key=t0TVs3DtDT2H8Oy2Zy8m2eVrNsAVKAexjcZXUckd",
    "self" : "https://api.nasa.gov/neo/rest/v1/feed?start_date=2009-08-22&end_date=2009-08-22&detailed=true&api_key=t0TVs3DtDT2H8Oy2Zy8m2eVrNsAVKAexjcZXUckd"
  },
  "element_count" : 5,
  "near_earth_objects" : {
    "2009-08-22" : [ {
      "links" : {
        "self" : "https://api.nasa.gov/neo/rest/v1/neo/3754386?api_key=t0TVs3DtDT2H8Oy2Zy8m2eVrNsAVKAexjcZXUckd"
      },
      "neo_reference_id" : "3754386",
      "name" : "(2016 NV)",
      "nasa_jpl_url" : "http://ssd.jpl.nasa.gov/sbdb.cgi?sstr=3754386",
      "absolute_magnitude_h" : 19.8,
      "estimated_diameter" : {
        "kilometers" : {
          "estimated_diameter_min" : 0.2914439045,
          "estimated_diameter_max" : 0.6516883822
        },
        "meters" : {
          "estimated_diameter_min" : 291.4439045349,
          "estimated_diameter_max" : 651.6883821679
        },
        "miles" : {
          "estimated_diameter_min" : 0.1810947904,
          "estimated_diameter_max" : 0.4049402617
        },
        "feet" : {
          "estimated_diameter_min" : 956.1808197541,
          "estimated_diameter_max" : 2138.0853117517
        }
      },
      "is_potentially_hazardous_asteroid" : true,
      "close_approach_data" : [ {
        "close_approach_date" : "2009-08-22",
        "epoch_date_close_approach" : 1250924400000,
        "relative_velocity" : {
          "kilometers_per_second" : "15.6076895942",
          "kilometers_per_hour" : "56187.6825392543",
          "miles_per_hour" : "34912.8408533494"
        },
        "miss_distance" : {
          "astronomical" : "0.474342528",
          "lunar" : "184.519241333",
          "kilometers" : "70960632",
          "miles" : "44092892"
        },
        "orbiting_body" : "Earth"
      } ],
      "orbital_data" : {
        "orbit_id" : "45",
        "orbit_determination_date" : "2017-04-06 08:25:12",
        "orbit_uncertainty" : "3",
        "minimum_orbit_intersection" : ".0151958",
        "jupiter_tisserand_invariant" : "5.030",
        "epoch_osculation" : "2458000.5",
        "eccentricity" : ".2367037197621155",
        "semi_major_axis" : "1.265951056342518",
        "inclination" : "16.29168889742051",
        "ascending_node_longitude" : "255.1733794564921",
        "orbital_period" : "520.2640293096432",
        "perihelion_distance" : ".9662957322694647",
        "perihelion_argument" : "145.1144463428979",
        "aphelion_distance" : "1.565606380415572",
        "perihelion_time" : "2458231.824740987834",
        "mean_anomaly" : "199.9333760088636",
        "mean_motion" : ".6919563523884148",
        "equinox" : "J2000"
      }
    }, {
      "links" : {
        "self" : "https://api.nasa.gov/neo/rest/v1/neo/3656925?api_key=t0TVs3DtDT2H8Oy2Zy8m2eVrNsAVKAexjcZXUckd"
      },
      "neo_reference_id" : "3656925",
      "name" : "(2014 BR8)",
      "nasa_jpl_url" : "http://ssd.jpl.nasa.gov/sbdb.cgi?sstr=3656925",
      "absolute_magnitude_h" : 21.7,
      "estimated_diameter" : {
        "kilometers" : {
          "estimated_diameter_min" : 0.1214940408,
          "estimated_diameter_max" : 0.2716689341
        },
        "meters" : {
          "estimated_diameter_min" : 121.4940407996,
          "estimated_diameter_max" : 271.6689340891
        },
        "miles" : {
          "estimated_diameter_min" : 0.0754928736,
          "estimated_diameter_max" : 0.1688071972
        },
        "feet" : {
          "estimated_diameter_min" : 398.6025088171,
          "estimated_diameter_max" : 891.3023057169
        }
      },
      "is_potentially_hazardous_asteroid" : false,
      "close_approach_data" : [ {
        "close_approach_date" : "2009-08-22",
        "epoch_date_close_approach" : 1250924400000,
        "relative_velocity" : {
          "kilometers_per_second" : "10.4990634716",
          "kilometers_per_hour" : "37796.6284976333",
          "miles_per_hour" : "23485.3550795433"
        },
        "miss_distance" : {
          "astronomical" : "0.1921762803",
          "lunar" : "74.7565765381",
          "kilometers" : "28749162",
          "miles" : "17863902"
        },
        "orbiting_body" : "Earth"
      } ],
      "orbital_data" : {
        "orbit_id" : "28",
        "orbit_determination_date" : "2017-08-10 06:17:41",
        "orbit_uncertainty" : "2",
        "minimum_orbit_intersection" : ".0536154",
        "jupiter_tisserand_invariant" : "5.164",
        "epoch_osculation" : "2458000.5",
        "eccentricity" : ".2391464963928471",
        "semi_major_axis" : "1.219918406119161",
        "inclination" : "17.1434789112377",
        "ascending_node_longitude" : "304.7979481900595",
        "orbital_period" : "492.146728878308",
        "perihelion_distance" : ".9281791934106173",
        "perihelion_argument" : "114.2865096863014",
        "aphelion_distance" : "1.511657618827705",
        "perihelion_time" : "2458101.053529265232",
        "mean_anomaly" : "286.4461827918915",
        "mean_motion" : ".7314891654781603",
        "equinox" : "J2000"
      }
    } ]
  }
}